H1 CPF 01  gfz 2022 02 23 13  5542 tandemx   
H2 1003001  6202 36605    2022 02 23 12 59 42 2022 02 28 00 00 42   120 1 1  0 0 0
H9
10 0 59636   2862.000000  0     618537.563  -1366599.783  -6730360.441
10 0 59636   2982.000000  0     394031.415  -2230045.201  -6512908.211
10 0 59636   3102.000000  0     147964.281  -3050741.501  -6181826.249
10 0 59636   3222.000000  0    -114527.402  -3814102.965  -5742817.661
10 0 59636   3342.000000  0    -387770.293  -4506601.542  -5203460.446
10 0 59636   3462.000000  0    -665669.923  -5116008.904  -4573088.548
10 0 59636   3582.000000  0    -941839.573  -5631619.083  -3862641.778
10 0 59636   3702.000000  0   -1209739.439  -6044446.271  -3084485.395
10 0 59636   3822.000000  0   -1462822.971  -6347392.902  -2252201.877
10 0 59636   3942.000000  0   -1694687.571  -6535384.717  -1380357.542
10 0 59636   4062.000000  0   -1899225.677  -6605468.086   -484246.537
10 0 59636   4182.000000  0   -2070772.522  -6556865.704    420382.192
10 0 59636   4302.000000  0   -2204247.069  -6390988.619   1317608.949
10 0 59636   4422.000000  0   -2295282.064  -6111404.051   2191632.287
10 0 59636   4542.000000  0   -2340339.574  -5723759.339   3027056.609
10 0 59636   4662.000000  0   -2336808.599  -5235663.854   3809171.307
10 0 59636   4782.000000  0   -2283082.634  -4656532.713   4524214.990
10 0 59636   4902.000000  0   -2178615.865  -3997397.339   5159619.946
10 0 59636   5022.000000  0   -2023957.128  -3270686.590   5704233.687
10 0 59636   5142.000000  0   -1820759.491  -2489982.980   6148511.513
10 0 59636   5262.000000  0   -1571765.789  -1669762.859   6484678.078
10 0 59636   5382.000000  0   -1280771.792   -825124.159   6706858.153
10 0 59636   5502.000000  0    -952568.079     28494.827   6811172.792
10 0 59636   5622.000000  0    -592861.476    875597.056   6795802.015
10 0 59636   5742.000000  0    -208175.738   1700907.529   6661015.460
10 0 59636   5862.000000  0     194266.815   2489648.629   6409167.953
10 0 59636   5982.000000  0     606680.393   3227804.620   6044660.431
10 0 59636   6102.000000  0    1020864.865   3902372.039   5573867.991
10 0 59636   6222.000000  0    1428367.160   4501592.617   5005034.041
10 0 59636   6342.000000  0    1820652.351   5015164.370   4348131.870
10 0 59636   6462.000000  0    2189281.117   5434425.647   3614694.102
10 0 59636   6582.000000  0    2526090.604   5752509.069   2817614.817
10 0 59636   6702.000000  0    2823373.100   5964465.077   1970922.112
10 0 59636   6822.000000  0    3074049.601   6067344.559   1089525.811
10 0 59636   6942.000000  0    3271831.690   6060240.931    188948.390
10 0 59636   7062.000000  0    3411369.115   5944291.891   -714956.008
10 0 59636   7182.000000  0    3488379.721   5722639.365  -1606289.202
10 0 59636   7302.000000  0    3499757.550   5400349.831  -2469396.136
10 0 59636   7422.000000  0    3443657.093   4984296.544  -3289146.660
10 0 59636   7542.000000  0    3319550.435   4483006.371  -4051204.729
10 0 59636   7662.000000  0    3128257.035   3906476.994  -4742278.240
10 0 59636   7782.000000  0    2871946.278   3265970.365  -5350347.174
10 0 59636   7902.000000  0    2554113.258   2573785.722  -5864865.420
10 0 59636   8022.000000  0    2179528.709   1843018.597  -6276933.762
10 0 59636   8142.000000  0    1754164.164   1087311.032  -6579441.998
10 0 59636   8262.000000  0    1285095.887    320598.521  -6767179.662
10 0 59636   8382.000000  0     780387.441   -443142.605  -6836917.592
10 0 59636   8502.000000  0     248951.750  -1190145.190  -6787456.937
10 0 59636   8622.000000  0    -299602.571  -1907092.576  -6619645.880
10 0 59636   8742.000000  0    -855139.848  -2581349.165  -6336367.709
10 0 59636   8862.000000  0   -1407180.267  -3201179.960  -5942497.543
10 0 59636   8982.000000  0   -1945092.483  -3755953.006  -5444826.549
10 0 59636   9102.000000  0   -2458294.368  -4236323.204  -4851956.920
10 0 59636   9222.000000  0   -2936459.923  -4634395.544  -4174165.262
10 0 59636   9342.000000  0   -3369727.114  -4943861.989  -3423234.127
10 0 59636   9462.000000  0   -3748901.987  -5160109.600  -2612255.429
10 0 59636   9582.000000  0   -4065655.731  -5280297.548  -1755407.301
10 0 59636   9702.000000  0   -4312709.245  -5303400.065   -867707.245
10 0 59636   9822.000000  0   -4483999.995  -5230213.728     35254.023
10 0 59636   9942.000000  0   -4574826.543  -5063328.123    937592.601
10 0 59636  10062.000000  0   -4581966.996  -4807059.794   1823419.762
10 0 59636  10182.000000  0   -4503767.086  -4467350.085   2677131.374
10 0 59636  10302.000000  0   -4340196.217  -4051630.686   3483690.965
10 0 59636  10422.000000  0   -4092870.695  -3568660.621   4228901.172
10 0 59636  10542.000000  0   -3765042.642  -3028338.043   4899658.300
10 0 59636  10662.000000  0   -3361555.517  -2441492.208   5484182.616
10 0 59636  10782.000000  0   -2888769.067  -1819662.793   5972222.492
10 0 59636  10902.000000  0   -2354454.744  -1174870.109   6355230.957
10 0 59636  11022.000000  0   -1767663.229   -519379.089   6626511.159
10 0 59636  11142.000000  0   -1138565.892    134536.304   6781326.256
10 0 59636  11262.000000  0    -478277.103    774821.351   6816975.405
10 0 59636  11382.000000  0     201341.861   1389862.006   6732838.466
10 0 59636  11502.000000  0     887895.513   1968695.435   6530386.413
10 0 59636  11622.000000  0    1568679.883   2501205.569   6213156.506
10 0 59636  11742.000000  0    2230916.630   2978299.938   5786694.150
10 0 59636  11862.000000  0    2861993.137   3392067.289   5258462.621
10 0 59636  11982.000000  0    3449705.647   3735913.017   4637718.468
10 0 59636  12102.000000  0    3982497.776   4004667.379   3935352.930
10 0 59636  12222.000000  0    4449691.472   4194667.709   3163707.449
10 0 59636  12342.000000  0    4841708.930   4303811.046   2336356.108
10 0 59636  12462.000000  0    5150272.109   4331573.713   1467864.539
10 0 59636  12582.000000  0    5368581.540   4278999.621    573528.859
10 0 59636  12702.000000  0    5491466.230   4148655.706   -330901.988
10 0 59636  12822.000000  0    5515500.288   3944555.981  -1229512.807
10 0 59636  12942.000000  0    5439084.892   3672056.292  -2106510.481
10 0 59636  13062.000000  0    5262493.058   3337722.262  -2946508.502
10 0 59636  13182.000000  0    4987876.888   2949175.245  -3734800.923
10 0 59636  13302.000000  0    4619238.106   2514920.648  -4457621.748
10 0 59636  13422.000000  0    4162361.264   2044160.607  -5102383.784
10 0 59636  13542.000000  0    3624713.823   1546597.932  -5657890.879
10 0 59636  13662.000000  0    3015315.902   1032236.561  -6114523.282
10 0 59636  13782.000000  0    2344581.966    511181.849  -6464393.586
10 0 59636  13902.000000  0    1624139.123     -6554.919  -6701470.609
10 0 59636  14022.000000  0     866626.534   -511244.572  -6821673.673
10 0 59636  14142.000000  0      85475.207   -993618.991  -6822935.940
10 0 59636  14262.000000  0    -705325.257  -1445036.456  -6705234.173
10 0 59636  14382.000000  0   -1491470.415  -1857631.962  -6470589.733
10 0 59636  14502.000000  0   -2258594.024  -2224451.937  -6123038.133
10 0 59636  14622.000000  0   -2992524.716  -2539570.008  -5668566.464
10 0 59636  14742.000000  0   -3679543.926  -2798183.343  -5115021.772
10 0 59636  14862.000000  0   -4306643.459  -2996688.559  -4471987.766
10 0 59636  14982.000000  0   -4861775.114  -3132733.926  -3750629.308
10 0 59636  15102.000000  0   -5334088.144  -3205247.071  -2963508.029
10 0 59636  15222.000000  0   -5714149.840  -3214437.463  -2124369.891
10 0 59636  15342.000000  0   -5994142.767  -3161772.611  -1247907.438
10 0 59636  15462.000000  0   -6168033.788  -3049928.441   -349501.471
10 0 59636  15582.000000  0   -6231710.041  -2882714.137    555053.496
10 0 59636  15702.000000  0   -6183078.396  -2664973.583   1449834.419
10 0 59636  15822.000000  0   -6022123.405  -2402465.041   2319080.340
10 0 59636  15942.000000  0   -5750921.847  -2101721.917   3147478.602
10 0 59636  16062.000000  0   -5373617.192  -1769899.613   3920442.168
10 0 59636  16182.000000  0   -4896349.913  -1414610.689   4624373.163
10 0 59636  16302.000000  0   -4327148.473  -1043753.676   5246902.665
10 0 59636  16422.000000  0   -3675786.627   -665340.950   5777106.332
10 0 59636  16542.000000  0   -2953607.755   -287327.640   6205693.915
10 0 59636  16662.000000  0   -2173319.069     82554.442   6525167.312
10 0 59636  16782.000000  0   -1348761.642    436952.500   6729944.806
10 0 59636  16902.000000  0    -494662.001    769036.650   6816452.593
10 0 59636  17022.000000  0     373631.442   1072630.284   6783182.850
10 0 59636  17142.000000  0    1240423.362   1342324.367   6630718.261
10 0 59636  17262.000000  0    2089954.456   1573574.211   6361722.335
10 0 59636  17382.000000  0    2906687.131   1762776.152   5980895.643
10 0 59636  17502.000000  0    3675591.080   1907323.913   5494899.369
10 0 59636  17622.000000  0    4382423.088   2005643.336   4912243.955
10 0 59636  17742.000000  0    5013994.963   2057205.877   4243146.791
10 0 59636  17862.000000  0    5558428.932   2062520.379   3499359.103
10 0 59636  17982.000000  0    6005390.610   2023100.869   2693958.851
10 0 59636  18102.000000  0    6346292.517   1941413.459   1841121.085
10 0 59636  18222.000000  0    6574468.789   1820802.397    955864.662
10 0 59636  18342.000000  0    6685310.631   1665396.199     53780.632
10 0 59636  18462.000000  0    6676361.905   1479998.262   -849250.795
10 0 59636  18582.000000  0    6547369.983   1269962.744  -1737349.063
10 0 59636  18702.000000  0    6300293.852   1041058.701  -2594919.246
10 0 59636  18822.000000  0    5939267.684    799327.421  -3406932.676
10 0 59636  18942.000000  0    5470520.581    550937.059  -4159193.501
10 0 59636  19062.000000  0    4902256.081    302037.226  -4838586.505
10 0 59636  19182.000000  0    4244495.486     58617.314  -5433300.225
10 0 59636  19302.000000  0    3508890.788   -173627.480  -5933023.681
99
